USA 159 (DSP 21)        
1 26880U 01033A   20354.45626694 -.00000301  00000-0  00000-0 0  9992
2 26880  10.9370  29.1696 0000943 298.5426 235.7007  1.00264535 12857
INTELSAT 902 (IS-902)   
1 26900U 01039A   20355.46725133 -.00000280  00000-0  00000+0 0  9996
2 26900   1.0643  94.7891 0003109 187.0580 285.7748  1.00270148 70666
USA 164 (MILSTAR-2 3)   
1 27168U 02001A   20354.68386752  .00000098  00000-0  00000-0 0  9993
2 27168   8.9530  31.1844 0002208 252.2777  70.4306  1.00269102 12842
ECHOSTAR 7              
1 27378U 02006A   20354.65778222  .00000000  00000-0  00000-0 0  9998
2 27378   0.0139   3.5596 0000939 275.7770 287.3633  1.00273065 30498
INTELSAT 904 (IS-904)   
1 27380U 02007A   20354.46019257 -.00000214  00000-0  00000-0 0  9995
2 27380   1.9010  91.5055 0003138 181.3803 311.7873  1.00270868 31654
TDRS 9                  
1 27389U 02011A   20354.53376890 -.00000289  00000-0  00000-0 0  9998
2 27389   7.8754  65.7439 0026611 275.6406 237.1582  1.00273803 70337
JCSAT-2A                
1 27399U 02015A   20354.86871769 -.00000254  00000-0  00000-0 0  9996
2 27399   3.3391  83.7996 0002234  39.4877  61.9586  1.00275466 68798
ASTRA 3A                
1 27400U 02015B   20354.30839851 -.00000206  00000-0  00000-0 0  9991
2 27400   6.2875  62.4844 0001402 204.9746 205.0810  1.00275153 68611
NSS-7                   
1 27414U 02019A   20354.60570227 -.00000159  00000-0  00000-0 0  9999
2 27414   4.6507  75.4555 0002472 202.3196   8.9258  1.00271961 68453
DIRECTV 5 (TEMPO 1)     
1 27426U 02023A   20354.51593642 -.00000056  00000-0  00000+0 0  9998
2 27426   0.0183 358.6270 0002981 276.0942 249.4562  1.00271158 68197
INTELSAT 905 (IS-905)   
1 27438U 02027A   20354.67653799 -.00000184  00000-0  00000-0 0  9995
2 27438   1.7224  92.3502 0002506 170.6948  44.7470  1.00271290 31250
GALAXY 3C (G-3C)        
1 27445U 02030A   20354.43869740 -.00000152  00000-0  00000-0 0  9991
2 27445   0.0174 318.8879 0002176 342.8311 209.6585  1.00284678 26399
EUTELSAT 5 WEST A       
1 27460U 02035A   20354.68046361 -.00000042  00000-0  00000-0 0  9994
2 27460   1.0012  95.1094 0005875 175.8926  57.6790  1.00271415 67509
METEOSAT-8 (MSG-1)      
1 27509U 02040B   20354.76438279  .00000135  00000-0  00000-0 0  9998
2 27509   7.0535  53.3091 0001026 163.2761 188.9534  1.00265082 67141
INTELSAT 906 (IS-906)   
1 27513U 02041A   20354.86627847  .00000015  00000-0  00000-0 0  9993
2 27513   0.7275  96.9796 0003365 182.1696 185.7747  1.00271118 66920
HISPASAT 30W-4          
1 27528U 02044A   20355.13546748  .00000118  00000-0  00000+0 0  9996
2 27528   1.5180  92.2088 0003961 182.0052  80.6869  1.00271601 66846
TDRS 10                 
1 27566U 02055A   20354.79612640  .00000088  00000-0  00000-0 0  9993
2 27566   7.2291  52.7573 0008652 272.7402 238.7497  1.00270113 66123
NSS-6                   
1 27603U 02057A   20355.11646549  .00000109  00000-0  00000+0 0  9992
2 27603   0.2657  97.8519 0004016 167.8945  55.8094  1.00272108 65924
NIMIQ 2                 
1 27632U 02062A   20354.44149868 -.00000178  00000-0  00000-0 0  9995
2 27632   4.7645  74.6434 0005087 278.5107 163.1977  1.00270425 24074
USA 167                 
1 27691U 03008A   20355.39734403  .00000055  00000-0  00000+0 0  9993
2 27691   6.9964  57.8581 0001678 344.0940  60.3775  1.00272696 11521
USA 169 (MILSTAR-2 4)   
1 27711U 03012A   20354.87154125 -.00000197  00000-0  00000-0 0  9999
2 27711   9.3246  43.6628 0002885 222.6529 288.4969  1.00271916 12842
GALAXY 12 (G-12)        
1 27715U 03013B   20354.65577579  .00000058  00000-0  00000-0 0  9997
2 27715   1.9371  90.9161 0001706 177.6010 287.2594  1.00271943 31982
ASIASAT 4               
1 27718U 03014A   20355.35813230  .00000156  00000-0  00000+0 0  9994
2 27718   0.0298 304.1457 0001605 323.7359 348.5636  1.00266043 64810
HELLAS-SAT 2            
1 27811U 03020A   20354.66249297 -.00000150  00000-0  00000-0 0  9990
2 27811   2.3561  90.2711 0002706 183.7096 318.0359  1.00270986 22733
THURAYA-2               
1 27825U 03026A   20354.85052003  .00000127  00000-0  00000-0 0  9992
2 27825   6.1100  33.4733 0004972 232.6274 172.9782  1.00272592 64245
OPTUS C1                
1 27831U 03028B   20355.02896527 -.00000149  00000-0  00000+0 0  9992
2 27831   1.8640  92.3266 0005759 171.3000 351.6026  1.00271991 64214
GALAXY 23 (G-23)        
1 27854U 03034A   20354.65734604  .00000014  00000-0  00000-0 0  9990
2 27854   0.0079 317.2999 0003031 311.1151 295.9498  1.00271714 63631
USA 170                 
1 27875U 03040A   20354.45766271 -.00000275  00000-0  00000-0 0  9993
2 27875   6.2602  63.3323 0001734 173.0797 334.2489  1.00279496 12853
GALAXY 13 (HORIZONS 1)  
1 27954U 03044A   20355.51945301  .00000051  00000-0  00000+0 0  9996
2 27954   0.0267 318.4848 0003674 228.4976 322.5304  1.00265830 63056
YAMAL 202               
1 28089U 03053A   20355.02896527 -.00000079  00000-0  00000+0 0  9998
2 28089   1.2943  93.5489 0002846 151.4648  17.9304  1.00270687 62570
UFO 11 (USA 174)        
1 28117U 03057A   20355.06648306 -.00000102  00000-0  00000+0 0  9995
2 28117   6.2737  37.6665 0003247 287.3239 223.4458  1.00271204 62316
USA 176 (DSP 22)        
1 28158U 04004A   20354.83689987 -.00000220  00000-0  00000+0 0  9998
2 28158   9.3976  38.2368 0000757 255.7899 183.4739  1.00269904 11507
ABS-4 (MOBISAT-1)       
1 28184U 04007A   20354.86627847  .00000041  00000-0  00000-0 0  9991
2 28184   0.9765  94.8800 0005485 173.6992 193.2086  1.00274544 32236
EUTELSAT 7A             
1 28187U 04008A   20354.67339749 -.00000275  00000-0  00000-0 0  9995
2 28187   0.7713  90.9708 0005791 166.6597  32.9796  0.99855408 61248
DIRECTV 7S              
1 28238U 04016A   20355.15096601  .00000003  00000-0  00000+0 0  9999
2 28238   0.0449  87.7075 0002188 260.2972  36.4516  1.00271922 60952
AMC-11 (GE-11)          
1 28252U 04017A   20355.51656806  .00000071  00000-0  00000+0 0  9990
2 28252   0.0142   1.9901 0002675 273.5169 229.0174  1.00272461 60601
INTELSAT 10-02          
1 28358U 04022A   20354.99702431 -.00000010  00000-0  00000+0 0  9994
2 28358   0.0321 271.6584 0002510   3.9955 171.3431  1.00272597 60522
ANIK F2                 
1 28378U 04027A   20354.51576196 -.00000050  00000-0  00000+0 0  9990
2 28378   0.0152 314.9921 0000157 138.8302  69.3484  1.00271551 60243
AMC-15                  
1 28446U 04041A   20354.66048654 -.00000088  00000-0  00000-0 0  9993
2 28446   0.0195  26.6811 0002730 251.4000 303.3572  1.00272907 59217
AMC-16                  
1 28472U 04048A   20354.52090889 -.00000206  00000-0  00000-0 0  9993
2 28472   0.0140  20.0501 0002572 239.8792 291.1743  1.00271953 58619
NSS-10 (AMC-12)         
1 28526U 05003A   20355.10369628 -.00000250  00000-0  00000+0 0  9998
2 28526   1.4602  92.8255 0002878 163.9922 192.2055  1.00271112 58211
XTAR-EUR                
1 28542U 05005A   20354.67288923  .00000151  00000-0  00000-0 0  9997
2 28542   0.0159  27.2781 0001967 236.7616  95.9336  1.00269566 58079
XM-3 (RHYTHM)           
1 28626U 05008A   20355.17246552 -.00000204  00000-0  00000+0 0  9990
2 28626   0.0177  18.7752 0000213 100.4180 307.0074  1.00266894 57965
INMARSAT 4-F1           
1 28628U 05009A   20354.71003664 -.00000261  00000-0  00000+0 0  9990
2 28628   3.2681  29.0922 0002579 241.4813 217.2832  1.00272441 57556
APSTAR 6                
1 28638U 05012A   20354.86627847  .00000039  00000-0  00000-0 0  9999
2 28638   2.2537  91.9345 0010329 238.0004 130.4414  0.98569430 82271
DIRECTV 8               
1 28659U 05019A   20354.65769499  .00000002  00000-0  00000-0 0  9996
2 28659   0.0227 287.7169 0002853 351.9232 286.7822  1.00272200 57018
GALAXY 28 (G-28)        
1 28702U 05022A   20355.45330848 -.00000182  00000-0  00000+0 0  9999
2 28702   0.0373  61.0680 0001673 265.6543 196.9820  1.00262887 56722
EXPRESS-AM3             
1 28707U 05023A   20354.82121128 -.00000053  00000-0  00000-0 0  9992
2 28707   2.2650  88.2444 0001716 237.4259 140.3541  0.99818894 56733
THAICOM 4               
1 28786U 05028A   20354.69556253 -.00000362  00000-0  00000-0 0  9993
2 28786   0.0184   5.3846 0002450 257.1305 196.1471  1.00271623 32169
GALAXY 14 (G-14)        
1 28790U 05030A   20355.14760603  .00000038  00000-0  00000+0 0  9996
2 28790   0.0141   5.8965 0002418 259.8599 111.5745  1.00271047 56208
ANIK F1R                
1 28868U 05036A   20354.66005036 -.00000073  00000-0  00000-0 0  9997
2 28868   0.0134  19.8903 0001199 294.4477 264.6807  1.00271419 26342
GALAXY 15 (G-15)        
1 28884U 05041A   20354.65490344  .00000079  00000-0  00000-0 0  9995
2 28884   0.0282  53.7951 0001824 222.8676 274.7614  1.00272669 55567
SYRACUSE 3A             
1 28885U 05041B   20354.75882865  .00000129  00000-0  00000-0 0  9996
2 28885   0.0178  61.0534 0003008 215.0547 132.8634  1.00272511 55638
INMARSAT 4-F2           
1 28899U 05044A   20354.82040293  .00000010  00000-0  00000+0 0  9991
2 28899   3.1305  31.8107 0002706 239.1627 177.1309  1.00272497 55397
TELKOM 2                
1 28902U 05046A   20354.97063267 -.00000137  00000-0  00000+0 0  9991
2 28902   0.0172  67.5473 0001321 336.6001 191.3148  1.00271444 55135
SPACEWAY 2              
1 28903U 05046B   20355.13803112  .00000105  00000-0  00000+0 0  9996
2 28903   0.6274  92.8559 0000099 278.8175 348.2918  1.00271300 55398
METEOSAT-9 (MSG-2)      
1 28912U 05049B   20355.32821191  .00000018  00000-0  00000+0 0  9990
2 28912   4.8241  69.3268 0000834 232.8523 268.8194  1.00266621 54974
EUTELSAT 174A           
1 28924U 05052A   20355.46448984  .00000012  00000-0  00000+0 0  9991
2 28924   0.0651  26.0098 0005975 241.0764 163.6195  1.00272754 54888
ECHOSTAR 10             
1 28935U 06003A   20355.15709375 -.00000054  00000-0  00000+0 0  9997
2 28935   0.0133 356.2209 0001384 239.5916 159.7426  1.00273102 54418
